STARLINK-35505          
1 66329U 25253L   25325.16668980 -.00521460  00000+0 -35721-2 0  9993
2 66329  42.9996 111.5801 0001592 276.5803 172.1802 15.75251693  3460
STARLINK-35512          
1 66330U 25253M   25325.16668980 -.00519760  00000+0 -35607-2 0  9998
2 66330  42.9999 111.5556 0001419 274.5057 183.8439 15.75246296  3467
STARLINK-35257          
1 66331U 25253N   25325.16668980 -.00522069  00000+0 -35766-2 0  9991
2 66331  42.9998 111.5161 0001613 267.3921 206.2950 15.75250592  3197
STARLINK-35322          
1 66332U 25253P   25325.16668980 -.00426233  00000+0 -28964-2 0  9990
2 66332  42.9998 111.5399 0001601 282.8206 181.2832 15.75176877  3460
STARLINK-35400          
1 66333U 25253Q   25325.16668980 -.00506555  00000+0 -34663-2 0  9990
2 66333  42.9996 111.5201 0001364 274.1967 197.5770 15.75236761  3465
STARLINK-35407          
1 66334U 25253R   25325.16668980 -.00539441  00000+0 -37019-2 0  9999
2 66334  42.9997 111.5357 0001437 269.0421 196.9715 15.75260494  3460
STARLINK-35417          
1 66335U 25253S   25325.16668980 -.00544070  00000+0 -37347-2 0  9998
2 66335  42.9998 111.4962 0001744 256.4743 224.8708 15.75264299  3461
STARLINK-35404          
1 66336U 25253T   25325.16668980 -.00547706  00000+0 -37620-2 0  9992
2 66336  42.9994 111.5118 0001314 281.1699 194.4330 15.75262908  3558
STARLINK-34783          
1 66337U 25253U   25325.16668980 -.00472795  00000+0 -32266-2 0  9999
2 66337  42.9997 111.4924 0001471 277.8377 205.4321 15.75205844  3510
STARLINK-35477          
1 66338U 25253V   25325.16668980 -.00533265  00000+0 -36570-2 0  9992
2 66338  42.9995 111.5021 0001762 265.9238 213.5088 15.75257163  3550
STARLINK-35443          
1 66339U 25253W   25325.16668980 -.00467762  00000+0 -31899-2 0  9990
2 66339  42.9995 111.4766 0001578 263.5186 225.4961 15.75208295  3517
STARLINK-35218          
1 66340U 25253X   25325.16668980 -.00448641  00000+0 -30539-2 0  9997
2 66340  42.9996 111.5062 0001802 259.1632 218.3471 15.75197273  3551
