CCSDS_OMM_VERS = 2.0
CREATION_DATE  = 
ORIGINATOR     = 

OBJECT_NAME    = STARLINK-35505
OBJECT_ID      = 2025-253L
CENTER_NAME    = EARTH
REF_FRAME      = TEME
TIME_SYSTEM    = UTC
MEAN_ELEMENT_THEORY = SGP/SGP4

EPOCH          = 2025-11-21T04:00:01.998720
MEAN_MOTION    = 15.75251693
ECCENTRICITY   = .0001592
INCLINATION    = 42.9996
RA_OF_ASC_NODE = 111.5801
ARG_OF_PERICENTER = 276.5803
MEAN_ANOMALY   = 172.1802

EPHEMERIS_TYPE = 0
CLASSIFICATION_TYPE = U
NORAD_CAT_ID   = 66329
ELEMENT_SET_NO = 999
REV_AT_EPOCH   = 346
BSTAR          = -.35721E-2
MEAN_MOTION_DOT = -.52146E-2
MEAN_MOTION_DDOT = 0

CCSDS_OMM_VERS = 2.0
CREATION_DATE  = 
ORIGINATOR     = 

OBJECT_NAME    = STARLINK-35512
OBJECT_ID      = 2025-253M
CENTER_NAME    = EARTH
REF_FRAME      = TEME
TIME_SYSTEM    = UTC
MEAN_ELEMENT_THEORY = SGP/SGP4

EPOCH          = 2025-11-21T04:00:01.998720
MEAN_MOTION    = 15.75246296
ECCENTRICITY   = .0001419
INCLINATION    = 42.9999
RA_OF_ASC_NODE = 111.5556
ARG_OF_PERICENTER = 274.5057
MEAN_ANOMALY   = 183.8439

EPHEMERIS_TYPE = 0
CLASSIFICATION_TYPE = U
NORAD_CAT_ID   = 66330
ELEMENT_SET_NO = 999
REV_AT_EPOCH   = 346
BSTAR          = -.35607E-2
MEAN_MOTION_DOT = -.51976E-2
MEAN_MOTION_DDOT = 0

CCSDS_OMM_VERS = 2.0
CREATION_DATE  = 
ORIGINATOR     = 

OBJECT_NAME    = STARLINK-35257
OBJECT_ID      = 2025-253N
CENTER_NAME    = EARTH
REF_FRAME      = TEME
TIME_SYSTEM    = UTC
MEAN_ELEMENT_THEORY = SGP/SGP4

EPOCH          = 2025-11-21T04:00:01.998720
MEAN_MOTION    = 15.75250592
ECCENTRICITY   = .0001613
INCLINATION    = 42.9998
RA_OF_ASC_NODE = 111.5161
ARG_OF_PERICENTER = 267.3921
MEAN_ANOMALY   = 206.2950

EPHEMERIS_TYPE = 0
CLASSIFICATION_TYPE = U
NORAD_CAT_ID   = 66331
ELEMENT_SET_NO = 999
REV_AT_EPOCH   = 319
BSTAR          = -.35766E-2
MEAN_MOTION_DOT = -.522069E-2
MEAN_MOTION_DDOT = 0

CCSDS_OMM_VERS = 2.0
CREATION_DATE  = 
ORIGINATOR     = 

OBJECT_NAME    = STARLINK-35322
OBJECT_ID      = 2025-253P
CENTER_NAME    = EARTH
REF_FRAME      = TEME
TIME_SYSTEM    = UTC
MEAN_ELEMENT_THEORY = SGP/SGP4

EPOCH          = 2025-11-21T04:00:01.998720
MEAN_MOTION    = 15.75176877
ECCENTRICITY   = .0001601
INCLINATION    = 42.9998
RA_OF_ASC_NODE = 111.5399
ARG_OF_PERICENTER = 282.8206
MEAN_ANOMALY   = 181.2832

EPHEMERIS_TYPE = 0
CLASSIFICATION_TYPE = U
NORAD_CAT_ID   = 66332
ELEMENT_SET_NO = 999
REV_AT_EPOCH   = 346
BSTAR          = -.28964E-2
MEAN_MOTION_DOT = -.426233E-2
MEAN_MOTION_DDOT = 0

CCSDS_OMM_VERS = 2.0
CREATION_DATE  = 
ORIGINATOR     = 

OBJECT_NAME    = STARLINK-35400
OBJECT_ID      = 2025-253Q
CENTER_NAME    = EARTH
REF_FRAME      = TEME
TIME_SYSTEM    = UTC
MEAN_ELEMENT_THEORY = SGP/SGP4

EPOCH          = 2025-11-21T04:00:01.998720
MEAN_MOTION    = 15.75236761
ECCENTRICITY   = .0001364
INCLINATION    = 42.9996
RA_OF_ASC_NODE = 111.5201
ARG_OF_PERICENTER = 274.1967
MEAN_ANOMALY   = 197.5770

EPHEMERIS_TYPE = 0
CLASSIFICATION_TYPE = U
NORAD_CAT_ID   = 66333
ELEMENT_SET_NO = 999
REV_AT_EPOCH   = 346
BSTAR          = -.34663E-2
MEAN_MOTION_DOT = -.506555E-2
MEAN_MOTION_DDOT = 0

CCSDS_OMM_VERS = 2.0
CREATION_DATE  = 
ORIGINATOR     = 

OBJECT_NAME    = STARLINK-35407
OBJECT_ID      = 2025-253R
CENTER_NAME    = EARTH
REF_FRAME      = TEME
TIME_SYSTEM    = UTC
MEAN_ELEMENT_THEORY = SGP/SGP4

EPOCH          = 2025-11-21T04:00:01.998720
MEAN_MOTION    = 15.75260494
ECCENTRICITY   = .0001437
INCLINATION    = 42.9997
RA_OF_ASC_NODE = 111.5357
ARG_OF_PERICENTER = 269.0421
MEAN_ANOMALY   = 196.9715

EPHEMERIS_TYPE = 0
CLASSIFICATION_TYPE = U
NORAD_CAT_ID   = 66334
ELEMENT_SET_NO = 999
REV_AT_EPOCH   = 346
BSTAR          = -.37019E-2
MEAN_MOTION_DOT = -.539441E-2
MEAN_MOTION_DDOT = 0

CCSDS_OMM_VERS = 2.0
CREATION_DATE  = 
ORIGINATOR     = 

OBJECT_NAME    = STARLINK-35417
OBJECT_ID      = 2025-253S
CENTER_NAME    = EARTH
REF_FRAME      = TEME
TIME_SYSTEM    = UTC
MEAN_ELEMENT_THEORY = SGP/SGP4

EPOCH          = 2025-11-21T04:00:01.998720
MEAN_MOTION    = 15.75264299
ECCENTRICITY   = .0001744
INCLINATION    = 42.9998
RA_OF_ASC_NODE = 111.4962
ARG_OF_PERICENTER = 256.4743
MEAN_ANOMALY   = 224.8708

EPHEMERIS_TYPE = 0
CLASSIFICATION_TYPE = U
NORAD_CAT_ID   = 66335
ELEMENT_SET_NO = 999
REV_AT_EPOCH   = 346
BSTAR          = -.37347E-2
MEAN_MOTION_DOT = -.54407E-2
MEAN_MOTION_DDOT = 0

CCSDS_OMM_VERS = 2.0
CREATION_DATE  = 
ORIGINATOR     = 

OBJECT_NAME    = STARLINK-35404
OBJECT_ID      = 2025-253T
CENTER_NAME    = EARTH
REF_FRAME      = TEME
TIME_SYSTEM    = UTC
MEAN_ELEMENT_THEORY = SGP/SGP4

EPOCH          = 2025-11-21T04:00:01.998720
MEAN_MOTION    = 15.75262908
ECCENTRICITY   = .0001314
INCLINATION    = 42.9994
RA_OF_ASC_NODE = 111.5118
ARG_OF_PERICENTER = 281.1699
MEAN_ANOMALY   = 194.4330

EPHEMERIS_TYPE = 0
CLASSIFICATION_TYPE = U
NORAD_CAT_ID   = 66336
ELEMENT_SET_NO = 999
REV_AT_EPOCH   = 355
BSTAR          = -.3762E-2
MEAN_MOTION_DOT = -.547706E-2
MEAN_MOTION_DDOT = 0

CCSDS_OMM_VERS = 2.0
CREATION_DATE  = 
ORIGINATOR     = 

OBJECT_NAME    = STARLINK-34783
OBJECT_ID      = 2025-253U
CENTER_NAME    = EARTH
REF_FRAME      = TEME
TIME_SYSTEM    = UTC
MEAN_ELEMENT_THEORY = SGP/SGP4

EPOCH          = 2025-11-21T04:00:01.998720
MEAN_MOTION    = 15.75205844
ECCENTRICITY   = .0001471
INCLINATION    = 42.9997
RA_OF_ASC_NODE = 111.4924
ARG_OF_PERICENTER = 277.8377
MEAN_ANOMALY   = 205.4321

EPHEMERIS_TYPE = 0
CLASSIFICATION_TYPE = U
NORAD_CAT_ID   = 66337
ELEMENT_SET_NO = 999
REV_AT_EPOCH   = 351
BSTAR          = -.32266E-2
MEAN_MOTION_DOT = -.472795E-2
MEAN_MOTION_DDOT = 0

CCSDS_OMM_VERS = 2.0
CREATION_DATE  = 
ORIGINATOR     = 

OBJECT_NAME    = STARLINK-35477
OBJECT_ID      = 2025-253V
CENTER_NAME    = EARTH
REF_FRAME      = TEME
TIME_SYSTEM    = UTC
MEAN_ELEMENT_THEORY = SGP/SGP4

EPOCH          = 2025-11-21T04:00:01.998720
MEAN_MOTION    = 15.75257163
ECCENTRICITY   = .0001762
INCLINATION    = 42.9995
RA_OF_ASC_NODE = 111.5021
ARG_OF_PERICENTER = 265.9238
MEAN_ANOMALY   = 213.5088

EPHEMERIS_TYPE = 0
CLASSIFICATION_TYPE = U
NORAD_CAT_ID   = 66338
ELEMENT_SET_NO = 999
REV_AT_EPOCH   = 355
BSTAR          = -.3657E-2
MEAN_MOTION_DOT = -.533265E-2
MEAN_MOTION_DDOT = 0

CCSDS_OMM_VERS = 2.0
CREATION_DATE  = 
ORIGINATOR     = 

OBJECT_NAME    = STARLINK-35443
OBJECT_ID      = 2025-253W
CENTER_NAME    = EARTH
REF_FRAME      = TEME
TIME_SYSTEM    = UTC
MEAN_ELEMENT_THEORY = SGP/SGP4

EPOCH          = 2025-11-21T04:00:01.998720
MEAN_MOTION    = 15.75208295
ECCENTRICITY   = .0001578
INCLINATION    = 42.9995
RA_OF_ASC_NODE = 111.4766
ARG_OF_PERICENTER = 263.5186
MEAN_ANOMALY   = 225.4961

EPHEMERIS_TYPE = 0
CLASSIFICATION_TYPE = U
NORAD_CAT_ID   = 66339
ELEMENT_SET_NO = 999
REV_AT_EPOCH   = 351
BSTAR          = -.31899E-2
MEAN_MOTION_DOT = -.467762E-2
MEAN_MOTION_DDOT = 0

CCSDS_OMM_VERS = 2.0
CREATION_DATE  = 
ORIGINATOR     = 

OBJECT_NAME    = STARLINK-35218
OBJECT_ID      = 2025-253X
CENTER_NAME    = EARTH
REF_FRAME      = TEME
TIME_SYSTEM    = UTC
MEAN_ELEMENT_THEORY = SGP/SGP4

EPOCH          = 2025-11-21T04:00:01.998720
MEAN_MOTION    = 15.75197273
ECCENTRICITY   = .0001802
INCLINATION    = 42.9996
RA_OF_ASC_NODE = 111.5062
ARG_OF_PERICENTER = 259.1632
MEAN_ANOMALY   = 218.3471

EPHEMERIS_TYPE = 0
CLASSIFICATION_TYPE = U
NORAD_CAT_ID   = 66340
ELEMENT_SET_NO = 999
REV_AT_EPOCH   = 355
BSTAR          = -.30539E-2
MEAN_MOTION_DOT = -.448641E-2
MEAN_MOTION_DDOT = 0

